{"type": "FeatureCollection", "features": [{"type": "Feature", "properties": {"norad_id": 22490, "name": "SCD 1", "group": "resource", "lat": 20.363881954825853, "lon": -40.0654768317684, "alt_km": 704.4552032136608, "timestamp": "2025-12-26T15:29:39.094611+00:00", "meta": {"OBJECT_NAME": "SCD 1", "OBJECT_ID": "1993-009B", "EPOCH": "2025-12-25T16:00:22.325184", "MEAN_MOTION": 14.46007346, "ECCENTRICITY": 0.0042177, "INCLINATION": 24.9675, "RA_OF_ASC_NODE": 198.8837, "ARG_OF_PERICENTER": 101.5468, "MEAN_ANOMALY": 317.8225, "EPHEMERIS_TYPE": 0, "CLASSIFICATION_TYPE": "U", "NORAD_CAT_ID": 22490, "ELEMENT_SET_NO": 999, "REV_AT_EPOCH": 73597, "BSTAR": 8.5981e-05, "MEAN_MOTION_DOT": 5e-06, "MEAN_MOTION_DDOT": 0}, "tle": {"line1": "1 22490U 93009B   25359.66692506  .00000500  00000+0  85981-4 0  9991", "line2": "2 22490  24.9675 198.8837 0042177 101.5468 317.8225 14.46007346735976"}}, "geometry": {"type": "Point", "coordinates": [-40.0654768317684, 20.363881954825853]}}, {"type": "Feature", "properties": {"norad_id": 25397, "name": "TECHSAT 1B (GO-32)", "group": "resource", "lat": 24.531040721522928, "lon": 168.32416075688968, "alt_km": 810.4681126259829, "timestamp": "2025-12-26T15:29:39.094638+00:00", "meta": {"OBJECT_NAME": "TECHSAT 1B (GO-32)", "OBJECT_ID": "1998-043D", "EPOCH": "2025-12-25T21:54:35.731584", "MEAN_MOTION": 14.24380587, "ECCENTRICITY": 0.0001626, "INCLINATION": 98.9934, "RA_OF_ASC_NODE": 343.4298, "ARG_OF_PERICENTER": 35.4202, "MEAN_ANOMALY": 324.7083, "EPHEMERIS_TYPE": 0, "CLASSIFICATION_TYPE": "U", "NORAD_CAT_ID": 25397, "ELEMENT_SET_NO": 999, "REV_AT_EPOCH": 42666, "BSTAR": 5.7042e-05, "MEAN_MOTION_DOT": 8.5e-07, "MEAN_MOTION_DDOT": 0}, "tle": {"line1": "1 25397U 98043D   25359.91291356  .00000085  00000+0  57042-4 0  9994", "line2": "2 25397  98.9934 343.4298 0001626  35.4202 324.7083 14.24380587426667"}}, "geometry": {"type": "Point", "coordinates": [168.32416075688968, 24.531040721522928]}}, {"type": "Feature", "properties": {"norad_id": 25504, "name": "SCD 2", "group": "resource", "lat": 19.60440771925502, "lon": -173.7061484905916, "alt_km": 725.0041977829987, "timestamp": "2025-12-26T15:29:39.094653+00:00", "meta": {"OBJECT_NAME": "SCD 2", "OBJECT_ID": "1998-060A", "EPOCH": "2025-12-26T06:52:50.825568", "MEAN_MOTION": 14.45430592, "ECCENTRICITY": 0.00170676, "INCLINATION": 24.9957, "RA_OF_ASC_NODE": 58.3644, "ARG_OF_PERICENTER": 95.9915, "MEAN_ANOMALY": 319.9792, "EPHEMERIS_TYPE": 0, "CLASSIFICATION_TYPE": "U", "NORAD_CAT_ID": 25504, "ELEMENT_SET_NO": 999, "REV_AT_EPOCH": 43528, "BSTAR": 8.0251292e-05, "MEAN_MOTION_DOT": 4.69e-06, "MEAN_MOTION_DDOT": 0}, "tle": {"line1": "1 25504U 98060A   25360.28669937  .00000469  00000+0  80251-4 0  9993", "line2": "2 25504  24.9957  58.3644 0017067  95.9915 319.9792 14.45430592435282"}}, "geometry": {"type": "Point", "coordinates": [-173.7061484905916, 19.60440771925502]}}, {"type": "Feature", "properties": {"norad_id": 25757, "name": "DLR-TUBSAT", "group": "resource", "lat": -27.939746056130378, "lon": -9.777151573704677, "alt_km": 733.8037268309026, "timestamp": "2025-12-26T15:29:39.094666+00:00", "meta": {"OBJECT_NAME": "DLR-TUBSAT", "OBJECT_ID": "1999-029B", "EPOCH": "2025-12-17T13:22:10.787520", "MEAN_MOTION": 14.52359578, "ECCENTRICITY": 0.00141996, "INCLINATION": 98.6566, "RA_OF_ASC_NODE": 336.2196, "ARG_OF_PERICENTER": 177.8976, "MEAN_ANOMALY": 182.2281, "EPHEMERIS_TYPE": 0, "CLASSIFICATION_TYPE": "U", "NORAD_CAT_ID": 25757, "ELEMENT_SET_NO": 999, "REV_AT_EPOCH": 40688, "BSTAR": 3.7650132e-05, "MEAN_MOTION_DOT": 1.05e-06, "MEAN_MOTION_DDOT": 0}, "tle": {"line1": "1 25757U 99029B   25351.55706930  .00000105  00000+0  37650-4 0  9996", "line2": "2 25757  98.6566 336.2196 0014199 177.8976 182.2281 14.52359578406886"}}, "geometry": {"type": "Point", "coordinates": [-9.777151573704677, -27.939746056130378]}}, {"type": "Feature", "properties": {"norad_id": 25994, "name": "TERRA", "group": "resource", "lat": 75.90343731951938, "lon": -94.25607926826895, "alt_km": 681.0696106407295, "timestamp": "2025-12-26T15:29:39.094678+00:00", "meta": {"OBJECT_NAME": "TERRA", "OBJECT_ID": "1999-068A", "EPOCH": "2025-12-26T07:08:23.257824", "MEAN_MOTION": 14.60916663, "ECCENTRICITY": 0.00033904, "INCLINATION": 97.973, "RA_OF_ASC_NODE": 51.4832, "ARG_OF_PERICENTER": 67.413, "MEAN_ANOMALY": 4.5335, "EPHEMERIS_TYPE": 0, "CLASSIFICATION_TYPE": "U", "NORAD_CAT_ID": 25994, "ELEMENT_SET_NO": 999, "REV_AT_EPOCH": 38436, "BSTAR": 0.00010871656, "MEAN_MOTION_DOT": 4.88e-06, "MEAN_MOTION_DDOT": 0}, "tle": {"line1": "1 25994U 99068A   25360.29749141  .00000488  00000+0  10872-3 0  9994", "line2": "2 25994  97.9730  51.4832 0003390  67.4130   4.5335 14.60916663384361"}}, "geometry": {"type": "Point", "coordinates": [-94.25607926826895, 75.90343731951938]}}, {"type": "Feature", "properties": {"norad_id": 27004, "name": "MAROC-TUBSAT", "group": "resource", "lat": -58.792090739399754, "lon": -27.22760151615475, "alt_km": 992.056001220134, "timestamp": "2025-12-26T15:29:39.094691+00:00", "meta": {"OBJECT_NAME": "MAROC-TUBSAT", "OBJECT_ID": "2001-056D", "EPOCH": "2025-12-26T06:26:07.011744", "MEAN_MOTION": 13.70253526, "ECCENTRICITY": 0.00193067, "INCLINATION": 99.7917, "RA_OF_ASC_NODE": 168.9503, "ARG_OF_PERICENTER": 224.2879, "MEAN_ANOMALY": 314.8235, "EPHEMERIS_TYPE": 0, "CLASSIFICATION_TYPE": "U", "NORAD_CAT_ID": 27004, "ELEMENT_SET_NO": 999, "REV_AT_EPOCH": 20250, "BSTAR": 2.9357085e-05, "MEAN_MOTION_DOT": -2.1e-07, "MEAN_MOTION_DDOT": 0}, "tle": {"line1": "1 27004U 01056D   25360.26813671 -.00000021  00000+0  29357-4 0  9998", "line2": "2 27004  99.7917 168.9503 0019306 224.2879 314.8235 13.70253526202501"}}, "geometry": {"type": "Point", "coordinates": [-27.22760151615475, -58.792090739399754]}}, {"type": "Feature", "properties": {"norad_id": 27424, "name": "AQUA", "group": "resource", "lat": 21.740683538682372, "lon": -41.62825415435956, "alt_km": 686.930507386026, "timestamp": "2025-12-26T15:29:39.094702+00:00", "meta": {"OBJECT_NAME": "AQUA", "OBJECT_ID": "2002-022A", "EPOCH": "2025-12-24T19:18:33.414624", "MEAN_MOTION": 14.61757572, "ECCENTRICITY": 0.00018094, "INCLINATION": 98.4055, "RA_OF_ASC_NODE": 319.881, "ARG_OF_PERICENTER": 102.1365, "MEAN_ANOMALY": 317.5475, "EPHEMERIS_TYPE": 0, "CLASSIFICATION_TYPE": "U", "NORAD_CAT_ID": 27424, "ELEMENT_SET_NO": 999, "REV_AT_EPOCH": 25779, "BSTAR": 0.00019560508, "MEAN_MOTION_DOT": 9.26e-06, "MEAN_MOTION_DDOT": 0}, "tle": {"line1": "1 27424U 02022A   25358.80455341  .00000926  00000+0  19561-3 0  9999", "line2": "2 27424  98.4055 319.8810 0001809 102.1365 317.5475 14.61757572257795"}}, "geometry": {"type": "Point", "coordinates": [-41.62825415435956, 21.740683538682372]}}, {"type": "Feature", "properties": {"norad_id": 28051, "name": "IRS-P6 (RESOURCESAT-1)", "group": "resource", "lat": 38.711872409767466, "lon": 33.75710432796919, "alt_km": 776.2337311672363, "timestamp": "2025-12-26T15:29:39.094713+00:00", "meta": {"OBJECT_NAME": "IRS-P6 (RESOURCESAT-1)", "OBJECT_ID": "2003-046A", "EPOCH": "2025-12-26T07:22:41.419776", "MEAN_MOTION": 14.3608118, "ECCENTRICITY": 0.00649626, "INCLINATION": 98.2158, "RA_OF_ASC_NODE": 40.0843, "ARG_OF_PERICENTER": 140.1829, "MEAN_ANOMALY": 312.5516, "EPHEMERIS_TYPE": 0, "CLASSIFICATION_TYPE": "U", "NORAD_CAT_ID": 28051, "ELEMENT_SET_NO": 999, "REV_AT_EPOCH": 15571, "BSTAR": 0.00013510415, "MEAN_MOTION_DOT": 3.62e-06, "MEAN_MOTION_DDOT": 0}, "tle": {"line1": "1 28051U 03046A   25360.30742384  .00000362  00000+0  13510-3 0  9999", "line2": "2 28051  98.2158  40.0843 0064962 140.1829 312.5516 14.36081180155716"}}, "geometry": {"type": "Point", "coordinates": [33.75710432796919, 38.711872409767466]}}, {"type": "Feature", "properties": {"norad_id": 28220, "name": "SHIYAN-1 (SY-1)", "group": "resource", "lat": -24.242538711880645, "lon": -120.57513952517435, "alt_km": 484.28455680078696, "timestamp": "2025-12-26T15:29:39.094724+00:00", "meta": {"OBJECT_NAME": "SHIYAN-1 (SY-1)", "OBJECT_ID": "2004-012A", "EPOCH": "2025-12-26T02:01:58.498176", "MEAN_MOTION": 15.28486878, "ECCENTRICITY": 0.00051616, "INCLINATION": 97.8911, "RA_OF_ASC_NODE": 62.4117, "ARG_OF_PERICENTER": 269.0234, "MEAN_ANOMALY": 91.0413, "EPHEMERIS_TYPE": 0, "CLASSIFICATION_TYPE": "U", "NORAD_CAT_ID": 28220, "ELEMENT_SET_NO": 999, "REV_AT_EPOCH": 18460, "BSTAR": 0.00046656189, "MEAN_MOTION_DOT": 0.00012867, "MEAN_MOTION_DDOT": 0}, "tle": {"line1": "1 28220U 04012A   25360.08470484  .00012867  00000+0  46656-3 0  9995", "line2": "2 28220  97.8911  62.4117 0005161 269.0234  91.0413 15.28486878184605"}}, "geometry": {"type": "Point", "coordinates": [-120.57513952517435, -24.242538711880645]}}, {"type": "Feature", "properties": {"norad_id": 28376, "name": "AURA", "group": "resource", "lat": 67.41078728379496, "lon": 151.53313631849386, "alt_km": 682.4945886351607, "timestamp": "2025-12-26T15:29:39.094735+00:00", "meta": {"OBJECT_NAME": "AURA", "OBJECT_ID": "2004-026A", "EPOCH": "2025-12-26T05:07:32.244096", "MEAN_MOTION": 14.60976898, "ECCENTRICITY": 0.00014453, "INCLINATION": 98.3204, "RA_OF_ASC_NODE": 310.5042, "ARG_OF_PERICENTER": 90.3774, "MEAN_ANOMALY": 269.7592, "EPHEMERIS_TYPE": 0, "CLASSIFICATION_TYPE": "U", "NORAD_CAT_ID": 28376, "ELEMENT_SET_NO": 999, "REV_AT_EPOCH": 14095, "BSTAR": 0.00024041337, "MEAN_MOTION_DOT": 1.131e-05, "MEAN_MOTION_DDOT": 0}, "tle": {"line1": "1 28376U 04026A   25360.21356764  .00001131  00000+0  24041-3 0  9997", "line2": "2 28376  98.3204 310.5042 0001445  90.3774 269.7592 14.60976898140950"}}, "geometry": {"type": "Point", "coordinates": [151.53313631849386, 67.41078728379496]}}]}